NORAD_CAT_ID,OBJECT_NAME,OBJECT_TYPE,EPOCH,MEAN_MOTION,ECCENTRICITY,INCLINATION,RA_OF_ASC_NODE,ARG_OF_PERICENTER,MEAN_ANOMALY,BSTAR,MEAN_MOTION_DOT,MEAN_MOTION_DDOT,TLE_LINE0,TLE_LINE1,TLE_LINE2,SEMIMAJOR_AXIS,PERIOD,APOGEE,PERIGEE,DECAYED
56782.0,STARLINK-6352,PAYLOAD,2024-07-19 21:02:26,14.98331209,0.0003027,70.0001,31.8848,269.4037,90.6775,0.00011133,1.236e-05,0.0,0 STARLINK-6352,1 56782U 23078R   24201.87669449  .00001236  00000-0  11133-3 0  9994,2 56782  70.0001  31.8848 0003027 269.4037  90.6775 14.98331209 63882,6950.189,96.107,574.158,569.95,0.0
56782.0,STARLINK-6352,PAYLOAD,2024-07-19 22:38:34,14.98332619,0.0003024,70.0001,31.7165,269.4047,90.6765,0.00012436,1.391e-05,0.0,0 STARLINK-6352,1 56782U 23078R   24201.94345317  .00001391  00000-0  12436-3 0  9996,2 56782  70.0001  31.7165 0003024 269.4047  90.6765 14.98332619 63639,6950.185,96.107,574.152,569.948,0.0
56782.0,STARLINK-6352,PAYLOAD,2024-07-20 14:39:55,14.98322166,0.0002971,70.0003,30.0331,268.8441,91.2378,0.00012983,1.456e-05,0.0,0 STARLINK-6352,1 56782U 23078R   24202.61105946  .00001456  00000-0  12983-3 0  9992,2 56782  70.0003  30.0331 0002971 268.8441  91.2378 14.98322166 63733,6950.217,96.108,574.147,570.017,0.0
56782.0,STARLINK-6352,PAYLOAD,2024-07-20 21:04:27,14.98333003,0.0002968,70.0004,29.3598,268.7899,91.292,4.3791e-05,4.3e-06,0.0,0 STARLINK-6352,1 56782U 23078R   24202.87809419  .00000430  00000-0  43791-4 0  9999,2 56782  70.0004  29.3598 0002968 268.7899  91.2920 14.98333003 64031,6950.184,96.107,574.111,569.986,0.0
56782.0,STARLINK-6352,PAYLOAD,2024-07-20 22:40:35,14.98335775,0.0002964,70.0004,29.1915,268.9457,91.1362,2.9811e-05,2.63e-06,0.0,0 STARLINK-6352,1 56782U 23078R   24202.94485259  .00000263  00000-0  29811-4 0  9990,2 56782  70.0004  29.1915 0002964 268.9457  91.1362 14.98335775 63788,6950.175,96.107,574.1,569.98,0.0
56782.0,STARLINK-6352,PAYLOAD,2024-07-21 14:41:56,14.98328219,0.0002948,70.0006,27.5091,271.9041,88.178,-3.5687e-05,-5.19e-06,0.0,0 STARLINK-6352,1 56782U 23078R   24203.61245865 -.00000519  00000-0 -35687-4 0  9996,2 56782  70.0006  27.5091 0002948 271.9041  88.1780 14.98328219 63888,6950.198,96.107,574.112,570.014,0.0
56782.0,STARLINK-6352,PAYLOAD,2024-07-21 21:06:28,14.98329832,0.0002971,70.0007,26.8365,272.2537,87.8282,-3.5304e-05,-5.14e-06,0.0,0 STARLINK-6352,1 56782U 23078R   24203.87949783 -.00000514  00000-0 -35304-4 0  9995,2 56782  70.0007  26.8365 0002971 272.2537  87.8282 14.98329832 64184,6950.193,96.107,574.123,569.994,0.0
56782.0,STARLINK-6352,PAYLOAD,2024-07-22 13:07:50,14.98230536,0.0003089,70.0009,25.1534,259.0908,100.9903,0.001637,0.00019444,0.0,0 STARLINK-6352,1 56782U 23078R   24204.54711377  .00019444  00000-0  16370-2 0  9996,2 56782  70.0009  25.1534 0003089 259.0908 100.9903 14.98230536 64282,6950.5,96.113,574.513,570.218,0.0
56782.0,STARLINK-6352,PAYLOAD,2024-07-23 03:33:01,14.98338945,0.0003138,70.0003,23.6378,269.2059,90.874,1.2843e-05,6e-07,0.0,0 STARLINK-6352,1 56782U 23078R   24205.14792866  .00000060  00000-0  12843-4 0  9992,2 56782  70.0003  23.6378 0003138 269.2059  90.8740 14.98338945 64379,6950.165,96.106,574.211,569.849,0.0
56782.0,STARLINK-6352,PAYLOAD,2024-07-23 11:33:42,14.98323188,0.0003288,69.9988,22.7941,271.9436,88.1346,-8.2196e-05,-1.073e-05,0.0,0 STARLINK-6352,1 56782U 23078R   24205.48174198 -.00001073  00000-0 -82196-4 0  9996,2 56782  69.9988  22.7941 0003288 271.9436  88.1346 14.98323188 64420,6950.214,96.107,574.364,569.794,0.0
56782.0,STARLINK-6352,PAYLOAD,2024-07-25 11:37:43,14.98332577,0.0003102,70.0,17.7447,268.4137,91.6666,3.2032e-05,2.89e-06,0.0,0 STARLINK-6352,1 56782U 23078R   24207.48453360  .00000289  00000-0  32032-4 0  9999,2 56782  70.0000  17.7447 0003102 268.4137  91.6666 14.98332577 64726,6950.185,96.107,574.206,569.894,0.0
56782.0,STARLINK-6352,PAYLOAD,2024-07-26 05:15:12,14.98331562,0.0003056,70.0008,15.8939,268.4947,91.5862,2.4697e-05,2.02e-06,0.0,0 STARLINK-6352,1 56782U 23078R   24208.21889429  .00000202  00000-0  24697-4 0  9993,2 56782  70.0008  15.8939 0003056 268.4947  91.5862 14.98331562 64579,6950.188,96.107,574.177,569.929,0.0
56782.0,STARLINK-6352,PAYLOAD,2024-07-26 19:40:24,14.98335746,0.0003038,69.9943,14.3783,266.1386,93.9426,4.2454e-05,4.14e-06,0.0,0 STARLINK-6352,1 56782U 23078R   24208.81972978  .00000414  00000-0  42454-4 0  9997,2 56782  69.9943  14.3783 0003038 266.1386  93.9426 14.98335746 64926,6950.175,96.107,574.152,569.929,0.0
56782.0,STARLINK-6352,PAYLOAD,2024-07-26 21:16:32,14.98336027,0.0003019,69.9933,14.2099,265.6626,94.4188,4.5144e-05,4.46e-06,0.0,0 STARLINK-6352,1 56782U 23078R   24208.88648923  .00000446  00000-0  45144-4 0  9998,2 56782  69.9933  14.2099 0003019 265.6626  94.4188 14.98336027 64670,6950.174,96.107,574.138,569.941,0.0
56782.0,STARLINK-6352,PAYLOAD,2024-07-27 10:05:37,14.98329826,0.000294,69.9879,12.8619,263.5403,96.5421,-2.3165e-05,-3.7e-06,0.0,0 STARLINK-6352,1 56782U 23078R   24209.42057375 -.00000370  00000-0 -23165-4 0  9991,2 56782  69.9879  12.8619 0002940 263.5403  96.5421 14.98329826 65014,6950.193,96.107,574.102,570.015,0.0
56782.0,STARLINK-6352,PAYLOAD,2024-07-27 21:18:34,14.98329119,0.000295,69.9976,11.6847,269.3293,90.7528,-2.4669e-05,-3.87e-06,0.0,0 STARLINK-6352,1 56782U 23078R   24209.88789535 -.00000387  00000-0 -24669-4 0  9999,2 56782  69.9976  11.6847 0002950 269.3293  90.7528 14.98329119 64821,6950.196,96.107,574.111,570.01,0.0
56782.0,STARLINK-6352,PAYLOAD,2024-07-28 13:19:54,14.98333262,0.0002871,70.0004,10.0018,271.3364,88.7467,-2.9694e-05,-4.47e-06,0.0,0 STARLINK-6352,1 56782U 23078R   24210.55549248 -.00000447  00000-0 -29694-4 0  9990,2 56782  70.0004  10.0018 0002871 271.3364  88.7467 14.98333262 65186,6950.183,96.107,574.043,570.052,0.0
56782.0,STARLINK-6352,PAYLOAD,2024-07-28 21:20:34,14.98331557,0.0002862,70.0012,9.1596,274.6472,85.436,2.8966e-05,2.53e-06,0.0,0 STARLINK-6352,1 56782U 23078R   24210.88929159  .00000253  00000-0  28966-4 0  9993,2 56782  70.0012   9.1596 0002862 274.6472  85.4360 14.98331557 64978,6950.188,96.107,574.042,570.064,0.0
56782.0,STARLINK-6352,PAYLOAD,2024-07-29 10:09:39,14.98327102,0.0002896,70.0013,7.8137,272.035,88.0478,8.1953e-06,5e-08,0.0,0 STARLINK-6352,1 56782U 23078R   24211.42337471  .00000005  00000-0  81953-5 0  9995,2 56782  70.0013   7.8137 0002896 272.0350  88.0478 14.98327102 65059,6950.202,96.107,574.08,570.054,0.0
56782.0,STARLINK-6352,PAYLOAD,2024-07-29 19:46:27,14.98328841,0.0002884,70.0014,6.8037,272.1965,87.8864,2.5763e-05,2.14e-06,0.0,0 STARLINK-6352,1 56782U 23078R   24211.82393354  .00000214  00000-0  25763-4 0  9999,2 56782  70.0014   6.8037 0002884 272.1965  87.8864 14.98328841 65370,6950.196,96.107,574.066,570.057,0.0
56782.0,STARLINK-6352,PAYLOAD,2024-07-30 10:11:40,14.98329914,0.0002874,70.0015,5.2898,269.1944,90.8885,-8.3988e-06,-1.93e-06,0.0,0 STARLINK-6352,1 56782U 23078R   24212.42477415 -.00000193  00000-0 -83988-5 0  9999,2 56782  70.0015   5.2898 0002874 269.1944  90.8885 14.98329914 65202,6950.193,96.107,574.056,570.061,0.0
56782.0,STARLINK-6352,PAYLOAD,2024-07-30 16:36:12,14.9833439,0.0002868,70.0015,4.6165,268.4602,91.6228,3.9305e-05,3.76e-06,0.0,0 STARLINK-6352,1 56782U 23078R   24212.69180959  .00000376  00000-0  39305-4 0  9996,2 56782  70.0015   4.6165 0002868 268.4602  91.6228 14.98334390 65246,6950.179,96.107,574.038,570.051,0.0
56782.0,STARLINK-6352,PAYLOAD,2024-07-31 03:49:09,14.98329662,0.0002934,70.0015,3.4364,267.5587,92.5236,-2.2881e-05,-3.66e-06,0.0,0 STARLINK-6352,1 56782U 23078R   24213.15913353 -.00000366  00000-0 -22881-4 0  9992,2 56782  70.0015   3.4364 0002934 267.5587  92.5236 14.98329662 65571,6950.194,96.107,574.098,570.02,0.0
56782.0,STARLINK-6352,PAYLOAD,2024-07-31 15:02:05,14.98318499,0.0003048,70.0008,2.2578,267.5549,92.5261,0.00015984,1.814e-05,0.0,0 STARLINK-6352,1 56782U 23078R   24213.62645626  .00001814  00000-0  15984-3 0  9991,2 56782  70.0008   2.2578 0003048 267.5549  92.5261 14.98318499 65385,6950.228,96.108,574.212,569.975,0.0
56782.0,STARLINK-6352,PAYLOAD,2024-07-31 19:50:29,14.98332027,0.0003121,70.0011,1.755,269.3451,90.7351,1.4123e-05,7.6e-07,0.0,0 STARLINK-6352,1 56782U 23078R   24213.82673103  .00000076  00000-0  14123-4 0  9998,2 56782  70.0011   1.7550 0003121 269.3451  90.7351 14.98332027 65414,6950.187,96.107,574.221,569.882,0.0
56782.0,STARLINK-6352,PAYLOAD,2024-08-01 03:51:09,14.98329956,0.0003206,70.0011,0.913,269.7179,90.3613,4.0565e-05,3.91e-06,0.0,0 STARLINK-6352,1 56782U 23078R   24214.16053083  .00000391  00000-0  40565-4 0  9994,2 56782  70.0011   0.9130 0003206 269.7179  90.3613 14.98329956 65722,6950.193,96.107,574.286,569.83,0.0
56782.0,STARLINK-6352,PAYLOAD,2024-08-01 11:51:49,14.98325865,0.0003092,70.0011,0.0712,269.78,90.3005,0.0002301,2.653e-05,0.0,0 STARLINK-6352,1 56782U 23078R   24214.49432844  .00002653  00000-0  23010-3 0  9994,2 56782  70.0011   0.0712 0003092 269.7800  90.3005 14.98325865 65510,6950.206,96.107,574.22,569.922,0.0
56782.0,STARLINK-6352,PAYLOAD,2024-08-01 19:52:29,14.98346098,0.0003052,70.0014,359.2296,271.4173,88.6636,9.9021e-05,1.089e-05,0.0,0 STARLINK-6352,1 56782U 23078R   24214.82811671  .00001089  00000-0  99021-4 0  9998,2 56782  70.0014 359.2296 0003052 271.4173  88.6636 14.98346098 65823,6950.143,96.106,574.129,569.887,0.0
56782.0,STARLINK-6352,PAYLOAD,2024-08-02 13:29:59,14.98323828,0.0003207,70.0006,357.3774,269.8973,90.1819,-4.8937e-05,-6.77e-06,0.0,0 STARLINK-6352,1 56782U 23078R   24215.56249429 -.00000677  00000-0 -48937-4 0  9990,2 56782  70.0006 357.3774 0003207 269.8973  90.1819 14.98323828 65934,6950.212,96.107,574.306,569.848,0.0
56782.0,STARLINK-6352,PAYLOAD,2024-08-02 15:06:07,14.98321794,0.000315,70.0012,357.2098,271.5326,88.5472,-6.0207e-05,-8.11e-06,0.0,0 STARLINK-6352,1 56782U 23078R   24215.62925667 -.00000811  00000-0 -60207-4 0  9996,2 56782  70.0012 357.2098 0003150 271.5326  88.5472 14.98321794 65686,6950.218,96.108,574.273,569.894,0.0
